     2.00           N: GPS NAV DATA                         RINEX VERSION / TYPE
teqc  1999Jul19                         20090102 05:11:06UTCPGM / RUN BY / DATE
MSWinNT 4.0|PentPro|wcl386 10.6|MSWin95/98/NT|486/DX+       COMMENT
                                                                 END OF HEADER
21 09  1  1 16  0  0.0 3.581820055842D-05-1.705302565824D-12 0.000000000000D+00
    9.000000000000D+00 2.934375000000D+01 5.526658778950D-09 7.326910273165D-01
    1.728534698486D-06 1.450304233003D-02 5.034729838371D-06 5.153651063919D+03
    4.031840000000D+05-3.725290298462D-08 2.255859054133D+00 2.235174179077D-07
    9.345821515894D-01 2.670312500000D+02-2.657743460517D+00-8.749293014601D-09
   -1.367914121971D-10 0.000000000000D+00 1.512000000000D+03 0.000000000000D+00
    2.000000000000D+00 0.000000000000D+00-1.164153218269D-08 9.000000000000D+00
    3.960000000000D+05
22 09  1  1 16  0  0.0 2.072905190289D-04-3.410605131648D-13 0.000000000000D+00
    2.500000000000D+01-8.656250000000D+00 4.862345393345D-09-1.680992622147D+00
   -5.066394805908D-07 4.987504216842D-03 8.543953299522D-06 5.153668849945D+03
    4.032000000000D+05 1.117587089539D-07-2.963100509007D+00 1.080334186554D-07
    9.425129333211D-01 2.056562500000D+02-1.810390890550D+00-8.156768333570D-09
   -4.814486256963D-10 0.000000000000D+00 1.512000000000D+03 0.000000000000D+00
    2.800000000000D+00 0.000000000000D+00-1.816079020500D-08 2.500000000000D+01
    3.960000000000D+05
24 09  1  1 16  0  0.0 1.541040837765D-04 3.183231456205D-12 0.000000000000D+00
    6.600000000000D+01 2.190625000000D+01 5.133428113600D-09-6.385134801237D-01
    1.108273863792D-06 7.088380283676D-03 5.405396223068D-06 5.153661386490D+03
    4.032000000000D+05-9.313225746155D-09 2.285513917720D+00-6.332993507385D-08
    9.512491977473D-01 2.709687500000D+02-6.472144457995D-01-8.493210919183D-09
    6.928860043404D-11 0.000000000000D+00 1.512000000000D+03 0.000000000000D+00
    2.000000000000D+00 0.000000000000D+00-1.396983861923D-09 6.600000000000D+01
    3.960000000000D+05
30 09  1  1 16  0  0.0 1.171422190964D-04 2.387423592154D-12 0.000000000000D+00
    2.700000000000D+01-8.540625000000D+01 4.866274128422D-09-9.075114611065D-01
   -4.367902874947D-06 1.115617703181D-02 7.325783371925D-06 5.153661426544D+03
    4.032000000000D+05-1.657754182816D-07 9.875966262779D-02 1.508742570877D-07
    9.509983146113D-01 2.372187500000D+02 1.416012149218D+00-8.415707690862D-09
   -1.571494030463D-10 0.000000000000D+00 1.512000000000D+03 0.000000000000D+00
    2.000000000000D+00 0.000000000000D+00-7.916241884232D-09 2.700000000000D+01
    3.960000000000D+05
31 09  1  1 16  0  0.0-4.597194492817D-05-1.477928890381D-12 0.000000000000D+00
    4.000000000000D+01 3.062500000000D+00 4.461614415577D-09 1.597313374468D+00
    1.061707735062D-07 7.081169402227D-03 2.956017851830D-06 5.153610445023D+03
    4.032000000000D+05 1.676380634308D-07-9.095622133171D-01-1.247972249985D-07
    9.707712382558D-01 3.247500000000D+02-1.217150046568D+00-8.234271561891D-09
    1.582208762489D-10 0.000000000000D+00 1.512000000000D+03 0.000000000000D+00
    2.000000000000D+00 0.000000000000D+00-1.303851604462D-08 4.000000000000D+01
    3.975600000000D+05
32 09  1  1 16  0  0.0 3.063809126616D-04-2.387423592154D-12 0.000000000000D+00
    7.200000000000D+01-1.250000000000D+00 4.298750488784D-09 2.455855895524D+00
   -1.247972249985D-07 1.373013551347D-02 8.618459105492D-06 5.153671037674D+03
    4.032000000000D+05 2.048909664154D-07-2.916419666460D+00 3.166496753693D-08
    9.664278856806D-01 2.118750000000D+02-1.220191020231D+00-7.718178635977D-09
   -5.639520622956D-10 0.000000000000D+00 1.512000000000D+03 0.000000000000D+00
    2.000000000000D+00 0.000000000000D+00-3.259629011154D-09 7.200000000000D+01
    4.027800000000D+05
 5 09  1  1 18  0  0.0-4.734415560961D-04-6.662048690487D-11 0.000000000000D+00
    2.200000000000D+01-8.571875000000D+01 5.008065748897D-09 6.763850293743D-01
   -4.610046744347D-06 9.363690507598D-03 6.228685379028D-06 5.153645004272D+03
    4.104000000000D+05-8.754432201385D-08 4.569974824081D-02-1.862645149231D-08
    9.450463358532D-01 2.523437500000D+02 1.296708185261D+00-8.524997957526D-09
   -1.928651764659D-10 0.000000000000D+00 1.512000000000D+03 0.000000000000D+00
    2.000000000000D+00 0.000000000000D+00-4.190951585770D-09 2.200000000000D+01
    4.032000000000D+05
 9 09  1  1 18  0  0.0 3.274669870734D-05 1.932676241267D-12 0.000000000000D+00
    6.100000000000D+01 1.490625000000D+01 4.345895309698D-09 1.782449589723D+00
    4.079192876816D-07 2.012895920780D-02 3.801658749580D-06 5.153653463364D+03
    4.104000000000D+05 9.872019290924D-08-9.418974515010D-01-4.712492227554D-07
    9.743025571894D-01 3.121562500000D+02 1.455465285537D+00-8.088194048605D-09
    2.271523189487D-10 0.000000000000D+00 1.512000000000D+03 0.000000000000D+00
    2.800000000000D+00 0.000000000000D+00-5.587935447693D-09 6.100000000000D+01
    4.032000000000D+05
12 09  1  1 18  0  0.0-3.291876055300D-04 3.183231456205D-12 0.000000000000D+00
    7.300000000000D+01-9.081250000000D+01 4.408755070916D-09 2.937713493867D+00
   -4.796311259270D-06 3.077537170611D-03 6.914138793945D-06 5.153750957489D+03
    4.104000000000D+05 4.470348358154D-08 1.440731054060D-01 3.539025783539D-08
    9.660432186862D-01 2.462500000000D+02-8.333713185176D-01-8.013190924423D-09
   -1.414344627416D-10 0.000000000000D+00 1.512000000000D+03 0.000000000000D+00
    2.000000000000D+00 0.000000000000D+00-1.164153218269D-08 7.300000000000D+01
    4.032000000000D+05
14 09  1  1 18  0  0.0-1.740669831634D-04 5.115907697473D-12 0.000000000000D+00
    6.600000000000D+01 6.018750000000D+01 3.706225807753D-09-1.493652124355D+00
    3.132969141006D-06 4.463341203518D-03 8.609145879745D-06 5.153562589645D+03
    4.104000000000D+05 1.452863216400D-07-1.919824490636D+00 2.793967723846D-08
    9.888263259570D-01 2.310000000000D+02-2.104430358589D+00-7.687105913102D-09
    8.357490980188D-11 0.000000000000D+00 1.512000000000D+03 0.000000000000D+00
    2.000000000000D+00 0.000000000000D+00-9.313225746155D-09 6.600000000000D+01
    4.032000000000D+05
18 09  1  1 18  0  0.0-9.727850556374D-05 3.751665644813D-12 0.000000000000D+00
    3.400000000000D+01-1.250000000000D+01 4.969849871339D-09 5.277035403763D-01
   -5.960464477539D-07 9.888342814520D-03 7.972121238708D-06 5.153747062683D+03
    4.104000000000D+05-6.705522537231D-08-2.969166918680D+00 1.285225152969D-07
    9.448516170681D-01 2.192500000000D+02-2.437422030537D+00-8.405707274305D-09
   -4.975207237351D-10 0.000000000000D+00 1.512000000000D+03 0.000000000000D+00
    2.000000000000D+00 0.000000000000D+00-1.071020960808D-08 3.400000000000D+01
    4.032000000000D+05
22 09  1  1 18  0  0.0 2.072877250612D-04-3.410605131648D-13 0.000000000000D+00
    6.400000000000D+01-8.312500000000D+00 4.976635868288D-09-6.305903055659D-01
   -4.637986421585D-07 4.987798049115D-03 8.091330528259D-06 5.153670949936D+03
    4.104000000000D+05-1.024454832077D-07-2.963160348208D+00 9.313225746155D-09
    9.425085211602D-01 2.138125000000D+02-1.810607156656D+00-8.391420964937D-09
   -4.525188492264D-10 0.000000000000D+00 1.512000000000D+03 0.000000000000D+00
    2.800000000000D+00 0.000000000000D+00-1.816079020500D-08 6.400000000000D+01
    4.032000000000D+05
30 09  1  1 18  0  0.0 1.171589829028D-04 2.387423592154D-12 0.000000000000D+00
    2.800000000000D+01-8.740625000000D+01 4.853416449991D-09 1.426836214256D-01
   -4.708766937256D-06 1.115541916806D-02 6.895512342453D-06 5.153660114288D+03
    4.104000000000D+05-1.471489667892D-07 9.869861505634D-02 1.862645149231D-09
    9.509971998677D-01 2.438125000000D+02 1.416008035493D+00-8.468209877789D-09
   -1.542921411727D-10 0.000000000000D+00 1.512000000000D+03 0.000000000000D+00
    2.000000000000D+00 0.000000000000D+00-7.916241884232D-09 2.800000000000D+01
    4.032000000000D+05
31 09  1  1 18  0  0.0-4.598312079906D-05-1.477928890381D-12 0.000000000000D+00
    7.500000000000D+01 7.906250000000D+00 4.442685055665D-09 2.647447465019D+00
    5.438923835754D-07 7.080732146278D-03 3.132969141006D-06 5.153611841202D+03
    4.104000000000D+05 1.229345798492D-07-9.096206993190D-01 1.490116119385D-08
    9.707723837207D-01 3.226562500000D+02-1.217065702026D+00-8.151410967557D-09
    1.121475285376D-10 0.000000000000D+00 1.512000000000D+03 0.000000000000D+00
    2.000000000000D+00 0.000000000000D+00-1.303851604462D-08 7.500000000000D+01
    4.032000000000D+05
32 09  1  1 18  0  0.0 3.063636831939D-04-2.387423592154D-12 0.000000000000D+00
    7.300000000000D+01 2.437500000000D+00 4.250891352402D-09-2.777171213677D+00
    9.872019290924D-08 1.373005355708D-02 8.685514330864D-06 5.153671285629D+03
    4.104000000000D+05 6.891787052155D-08-2.916476013675D+00 1.881271600723D-07
    9.664244975623D-01 2.094687500000D+02-1.220168342075D+00-7.671748130532D-09
   -4.007309777680D-10 0.000000000000D+00 1.512000000000D+03 0.000000000000D+00
    2.800000000000D+00 0.000000000000D+00-3.259629011154D-09 7.300000000000D+01
    4.032000000000D+05
29 09  1  1 18  0  0.0-2.114661037922D-05 2.501110429876D-12 0.000000000000D+00
    2.300000000000D+01-5.000000000000D-01 4.534117435619D-09 1.855610983063D+00
   -2.048909664154D-08 3.218588186428D-03 1.041032373905D-05 5.153768718719D+03
    4.103840000000D+05 9.872019290924D-08 1.210489973035D+00-3.911554813385D-08
    9.595730465490D-01 1.808125000000D+02-1.342961549979D+00-7.872470777150D-09
    2.892977646988D-10 0.000000000000D+00 1.512000000000D+03 0.000000000000D+00
    2.000000000000D+00 0.000000000000D+00-8.847564458847D-09 2.300000000000D+01
    4.045200000000D+05
